{
  "type": "FeatureCollection",
  "features": [
    {
      "type": "Feature",
      "properties": {
        "norad_id": 30436,
        "name": "FENGYUN 1C DEB",
        "group": "fengyun-1c-debris",
        "lat": 44.3446367426252,
        "lon": -122.00842303473414,
        "alt_km": 790.5899949406903,
        "timestamp": "2025-12-18T13:51:49.960184+00:00",
        "meta_object_name": "FENGYUN 1C DEB",
        "meta_object_id": "1999-025AEX",
        "meta_epoch": "2025-12-18T05:47:20.599296",
        "meta_mean_motion": 14.22335866,
        "meta_eccentricity": 0.00977658,
        "meta_inclination": 98.4269,
        "meta_ra_of_asc_node": 246.0007,
        "meta_arg_of_pericenter": 117.4077,
        "meta_mean_anomaly": 6.9018,
        "meta_ephemeris_type": 0,
        "meta_classification_type": "U",
        "meta_norad_cat_id": 30436,
        "meta_element_set_no": 999,
        "meta_rev_at_epoch": 96515,
        "meta_bstar": 0.0017026075,
        "meta_mean_motion_dot": 3.937e-05,
        "meta_mean_motion_ddot": 0,
        "tle_line1": "1 30436U 99025AEX 25352.24121064  .00003937  00000+0  17026-2 0  9997",
        "tle_line2": "2 30436  98.4269 246.0007 0097765 117.4077   6.9018 14.22335866965156"
      },
      "geometry": {
        "type": "Point",
        "coordinates": [
          -122.00842303473414,
          44.3446367426252
        ]
      }
    },
    {
      "type": "Feature",
      "properties": {
        "norad_id": 30437,
        "name": "FENGYUN 1C DEB",
        "group": "fengyun-1c-debris",
        "lat": 71.24247357775275,
        "lon": -14.483102713195105,
        "alt_km": 571.8793762044979,
        "timestamp": "2025-12-18T13:51:49.960194+00:00",
        "meta_object_name": "FENGYUN 1C DEB",
        "meta_object_id": "1999-025AEY",
        "meta_epoch": "2025-12-18T07:08:47.548320",
        "meta_mean_motion": 14.88269593,
        "meta_eccentricity": 0.0035711,
        "meta_inclination": 98.9212,
        "meta_ra_of_asc_node": 12.7538,
        "meta_arg_of_pericenter": 84.8154,
        "meta_mean_anomaly": 290.0327,
        "meta_ephemeris_type": 0,
        "meta_classification_type": "U",
        "meta_norad_cat_id": 30437,
        "meta_element_set_no": 999,
        "meta_rev_at_epoch": 99270,
        "meta_bstar": 0.001989827,
        "meta_mean_motion_dot": 0.00018577,
        "meta_mean_motion_ddot": 0,
        "tle_line1": "1 30437U 99025AEY 25352.29777255  .00018577  00000+0  19898-2 0  9997",
        "tle_line2": "2 30437  98.9212  12.7538 0035711  84.8154 290.0327 14.88269593992708"
      },
      "geometry": {
        "type": "Point",
        "coordinates": [
          -14.483102713195105,
          71.24247357775275
        ]
      }
    },
    {
      "type": "Feature",
      "properties": {
        "norad_id": 30438,
        "name": "FENGYUN 1C DEB",
        "group": "fengyun-1c-debris",
        "lat": 27.78147854747406,
        "lon": 4.627204005836129,
        "alt_km": 997.5862744149881,
        "timestamp": "2025-12-18T13:51:49.960205+00:00",
        "meta_object_name": "FENGYUN 1C DEB",
        "meta_object_id": "1999-025AEZ",
        "meta_epoch": "2025-12-17T11:51:05.018112",
        "meta_mean_motion": 13.92117575,
        "meta_eccentricity": 0.01348477,
        "meta_inclination": 98.7507,
        "meta_ra_of_asc_node": 8.258,
        "meta_arg_of_pericenter": 173.7487,
        "meta_mean_anomaly": 186.5396,
        "meta_ephemeris_type": 0,
        "meta_classification_type": "U",
        "meta_norad_cat_id": 30438,
        "meta_element_set_no": 999,
        "meta_rev_at_epoch": 95372,
        "meta_bstar": 0.0011851777,
        "meta_mean_motion_dot": 1.593e-05,
        "meta_mean_motion_ddot": 0,
        "tle_line1": "1 30438U 99025AEZ 25351.49380808  .00001593  00000+0  11852-2 0  9995",
        "tle_line2": "2 30438  98.7507   8.2580 0134847 173.7487 186.5396 13.92117575953728"
      },
      "geometry": {
        "type": "Point",
        "coordinates": [
          4.627204005836129,
          27.78147854747406
        ]
      }
    },
    {
      "type": "Feature",
      "properties": {
        "norad_id": 30439,
        "name": "FENGYUN 1C DEB",
        "group": "fengyun-1c-debris",
        "lat": -50.703189725033354,
        "lon": 14.967431821495172,
        "alt_km": 842.8612921433842,
        "timestamp": "2025-12-18T13:51:49.960215+00:00",
        "meta_object_name": "FENGYUN 1C DEB",
        "meta_object_id": "1999-025AFA",
        "meta_epoch": "2025-12-18T07:22:05.683008",
        "meta_mean_motion": 14.08850203,
        "meta_eccentricity": 0.00384899,
        "meta_inclination": 98.7495,
        "meta_ra_of_asc_node": 3.8584,
        "meta_arg_of_pericenter": 320.8471,
        "meta_mean_anomaly": 55.842,
        "meta_ephemeris_type": 0,
        "meta_classification_type": "U",
        "meta_norad_cat_id": 30439,
        "meta_element_set_no": 999,
        "meta_rev_at_epoch": 96870,
        "meta_bstar": 0.00042423656,
        "meta_mean_motion_dot": 6.95e-06,
        "meta_mean_motion_ddot": 0,
        "tle_line1": "1 30439U 99025AFA 25352.30701022  .00000695  00000+0  42424-3 0  9994",
        "tle_line2": "2 30439  98.7495   3.8584 0038489 320.8471  55.8420 14.08850203968703"
      },
      "geometry": {
        "type": "Point",
        "coordinates": [
          14.967431821495172,
          -50.703189725033354
        ]
      }
    },
    {
      "type": "Feature",
      "properties": {
        "norad_id": 30441,
        "name": "FENGYUN 1C DEB",
        "group": "fengyun-1c-debris",
        "lat": 24.34499742992142,
        "lon": 77.54755232160575,
        "alt_km": 1077.9113737962425,
        "timestamp": "2025-12-18T13:51:49.960225+00:00",
        "meta_object_name": "FENGYUN 1C DEB",
        "meta_object_id": "1999-025AFC",
        "meta_epoch": "2025-12-18T05:01:35.979744",
        "meta_mean_motion": 13.77685751,
        "meta_eccentricity": 0.01840557,
        "meta_inclination": 99.1346,
        "meta_ra_of_asc_node": 81.368,
        "meta_arg_of_pericenter": 243.1564,
        "meta_mean_anomaly": 115.0666,
        "meta_ephemeris_type": 0,
        "meta_classification_type": "U",
        "meta_norad_cat_id": 30441,
        "meta_element_set_no": 999,
        "meta_rev_at_epoch": 94945,
        "meta_bstar": 0.00052555877,
        "meta_mean_motion_dot": 5.51e-06,
        "meta_mean_motion_ddot": 0,
        "tle_line1": "1 30441U 99025AFC 25352.20944421  .00000551  00000+0  52556-3 0  9996",
        "tle_line2": "2 30441  99.1346  81.3680 0184055 243.1564 115.0666 13.77685751949456"
      },
      "geometry": {
        "type": "Point",
        "coordinates": [
          77.54755232160575,
          24.34499742992142
        ]
      }
    },
    {
      "type": "Feature",
      "properties": {
        "norad_id": 30442,
        "name": "FENGYUN 1C DEB",
        "group": "fengyun-1c-debris",
        "lat": 60.71348976851965,
        "lon": 70.10738201089502,
        "alt_km": 825.1548528142166,
        "timestamp": "2025-12-18T13:51:49.960236+00:00",
        "meta_object_name": "FENGYUN 1C DEB",
        "meta_object_id": "1999-025AFD",
        "meta_epoch": "2025-12-18T05:10:08.720544",
        "meta_mean_motion": 14.28664979,
        "meta_eccentricity": 0.00553568,
        "meta_inclination": 98.8671,
        "meta_ra_of_asc_node": 85.9001,
        "meta_arg_of_pericenter": 271.4394,
        "meta_mean_anomaly": 88.0446,
        "meta_ephemeris_type": 0,
        "meta_classification_type": "U",
        "meta_norad_cat_id": 30442,
        "meta_element_set_no": 999,
        "meta_rev_at_epoch": 97240,
        "meta_bstar": 0.0017471159,
        "meta_mean_motion_dot": 4.42e-05,
        "meta_mean_motion_ddot": 0,
        "tle_line1": "1 30442U 99025AFD 25352.21537871  .00004420  00000+0  17471-2 0  9990",
        "tle_line2": "2 30442  98.8671  85.9001 0055356 271.4394  88.0446 14.28664979972409"
      },
      "geometry": {
        "type": "Point",
        "coordinates": [
          70.10738201089502,
          60.71348976851965
        ]
      }
    },
    {
      "type": "Feature",
      "properties": {
        "norad_id": 30443,
        "name": "FENGYUN 1C DEB",
        "group": "fengyun-1c-debris",
        "lat": 38.63803980613186,
        "lon": -67.2977449288639,
        "alt_km": 761.435833285801,
        "timestamp": "2025-12-18T13:51:49.960246+00:00",
        "meta_object_name": "FENGYUN 1C DEB",
        "meta_object_id": "1999-025AFE",
        "meta_epoch": "2025-12-17T09:16:16.777920",
        "meta_mean_motion": 14.36858141,
        "meta_eccentricity": 0.00273709,
        "meta_inclination": 98.8481,
        "meta_ra_of_asc_node": 298.6311,
        "meta_arg_of_pericenter": 325.8834,
        "meta_mean_anomaly": 34.0591,
        "meta_ephemeris_type": 0,
        "meta_classification_type": "U",
        "meta_norad_cat_id": 30443,
        "meta_element_set_no": 999,
        "meta_rev_at_epoch": 97500,
        "meta_bstar": 0.0018344336,
        "meta_mean_motion_dot": 5.403e-05,
        "meta_mean_motion_ddot": 0,
        "tle_line1": "1 30443U 99025AFE 25351.38630530  .00005403  00000+0  18344-2 0  9996",
        "tle_line2": "2 30443  98.8481 298.6311 0027370 325.8834  34.0591 14.36858141975000"
      },
      "geometry": {
        "type": "Point",
        "coordinates": [
          -67.2977449288639,
          38.63803980613186
        ]
      }
    }
  ]
}